{
    "links": {
        "self": "http://www.neowsapp.com/rest/v1/neo/3843405?api_key=iIulBulltgU6a56xZRHN4H3l9WmuAYTsLGpBGhQ2"
    },
    "id": "3843405",
    "neo_reference_id": "3843405",
    "name": "(2019 OL3)",
    "designation": "2019 OL3",
    "nasa_jpl_url": "http://ssd.jpl.nasa.gov/sbdb.cgi?sstr=3843405",
    "absolute_magnitude_h": 24.4,
    "estimated_diameter": {
        "kilometers": {
            "estimated_diameter_min": 0.0350392641,
            "estimated_diameter_max": 0.0783501764
        },
        "meters": {
            "estimated_diameter_min": 35.0392641108,
            "estimated_diameter_max": 78.3501764334
        },
        "miles": {
            "estimated_diameter_min": 0.0217723826,
            "estimated_diameter_max": 0.0486845275
        },
        "feet": {
            "estimated_diameter_min": 114.9582192654,
            "estimated_diameter_max": 257.0543928497
        }
    },
    "is_potentially_hazardous_asteroid": false,
    "close_approach_data": [
        {
            "close_approach_date": "2019-08-12",
            "close_approach_date_full": "2019-Aug-12 21:20",
            "epoch_date_close_approach": 1565644800000,
            "relative_velocity": {
                "kilometers_per_second": "11.8681343094",
                "kilometers_per_hour": "42725.2835136708",
                "miles_per_hour": "26547.8296365917"
            },
            "miss_distance": {
                "astronomical": "0.069121857",
                "lunar": "26.888402373",
                "kilometers": "10340482.57764459",
                "miles": "6425277.929651742"
            },
            "orbiting_body": "Earth"
        },
        {
            "close_approach_date": "2020-01-05",
            "close_approach_date_full": "2020-Jan-05 21:44",
            "epoch_date_close_approach": 1578260640000,
            "relative_velocity": {
                "kilometers_per_second": "9.2610317151",
                "kilometers_per_hour": "33339.7141744197",
                "miles_per_hour": "20716.0018435443"
            },
            "miss_distance": {
                "astronomical": "0.3748372306",
                "lunar": "145.8116827034",
                "kilometers": "56074851.294458822",
                "miles": "34843296.8892308636"
            },
            "orbiting_body": "Earth"
        }
    ],
    "orbital_data": {
        "orbit_id": "3",
        "orbit_determination_date": "2019-08-07 06:01:09",
        "first_observation_date": "2019-07-28",
        "last_observation_date": "2019-08-06",
        "data_arc_in_days": 9,
        "observations_used": 20,
        "orbit_uncertainty": "8",
        "minimum_orbit_intersection": ".0665534",
        "jupiter_tisserand_invariant": "4.598",
        "epoch_osculation": "2458694.5",
        "eccentricity": ".3405115055101414",
        "semi_major_axis": "1.423426253330936",
        "inclination": "16.5565441427119",
        "ascending_node_longitude": "132.3995104443107",
        "orbital_period": "620.2987189453022",
        "perihelion_distance": ".938733236826559",
        "perihelion_argument": "245.9256826861014",
        "aphelion_distance": "1.908119269835313",
        "perihelion_time": "2458758.201564766181",
        "mean_anomaly": "323.0298070664767",
        "mean_motion": ".5803655384168941",
        "equinox": "J2000",
        "orbit_class": {
            "orbit_class_type": "APO",
            "orbit_class_description": "Near-Earth asteroid orbits which cross the Earth’s orbit similar to that of 1862 Apollo",
            "orbit_class_range": "a (semi-major axis) > 1.0 AU; q (perihelion) < 1.017 AU"
        }
    },
    "is_sentry_object": false
}